STARLINK-31499          
1 59217U 24046S   26068.49977774 -.00000320  00000+0  13103-5 0  9994
2 59217  53.1605 155.9918 0001189  93.0340 267.0797 15.30186181113010
COSMOS 2588             
1 64095U 25109A   26068.81179522  .00009169  00000+0  32611-3 0  9998
2 64095  72.9704  73.5401 0005019 308.6780  51.3966 15.29122656 44425
